CCSDS_OMM_VERS = 2.0
CREATION_DATE  = 
ORIGINATOR     = 

OBJECT_NAME    = UNKNOWN
OBJECT_ID      = 
CENTER_NAME    = EARTH
REF_FRAME      = TEME
TIME_SYSTEM    = UTC
MEAN_ELEMENT_THEORY = SGP/SGP4

EPOCH          = 2026-01-30T14:15:04.276800
MEAN_MOTION    = 14.00253192
ECCENTRICITY   = .0051179
INCLINATION    = 100.4278
RA_OF_ASC_NODE = 78.4430
ARG_OF_PERICENTER = 111.0304
MEAN_ANOMALY   = 43.1777

EPHEMERIS_TYPE = 0
CLASSIFICATION_TYPE = U
NORAD_CAT_ID   = 85373
ELEMENT_SET_NO = 999
REV_AT_EPOCH   = 61896
BSTAR          = .16671E-2
MEAN_MOTION_DOT = .2437E-4
MEAN_MOTION_DDOT = 0

CCSDS_OMM_VERS = 2.0
CREATION_DATE  = 
ORIGINATOR     = 

OBJECT_NAME    = UNKNOWN
OBJECT_ID      = 
CENTER_NAME    = EARTH
REF_FRAME      = TEME
TIME_SYSTEM    = UTC
MEAN_ELEMENT_THEORY = SGP/SGP4

EPOCH          = 2026-01-26T16:24:41.435424
MEAN_MOTION    = 16.02882600
ECCENTRICITY   = .0003262
INCLINATION    = 53.2147
RA_OF_ASC_NODE = 236.7622
ARG_OF_PERICENTER = 171.8494
MEAN_ANOMALY   = 188.2593

EPHEMERIS_TYPE = 0
CLASSIFICATION_TYPE = U
NORAD_CAT_ID   = 85430
ELEMENT_SET_NO = 999
REV_AT_EPOCH   = 1
BSTAR          = .17938E-2
MEAN_MOTION_DOT = .1102801E-1
MEAN_MOTION_DDOT = .65252E-3

CCSDS_OMM_VERS = 2.0
CREATION_DATE  = 
ORIGINATOR     = 

OBJECT_NAME    = UNKNOWN
OBJECT_ID      = 
CENTER_NAME    = EARTH
REF_FRAME      = TEME
TIME_SYSTEM    = UTC
MEAN_ELEMENT_THEORY = SGP/SGP4

EPOCH          = 2026-01-30T10:01:44.657472
MEAN_MOTION    = 13.52134107
ECCENTRICITY   = .004539
INCLINATION    = 100.4858
RA_OF_ASC_NODE = 2.4091
ARG_OF_PERICENTER = 117.1204
MEAN_ANOMALY   = 34.2059

EPHEMERIS_TYPE = 0
CLASSIFICATION_TYPE = U
NORAD_CAT_ID   = 87014
ELEMENT_SET_NO = 999
REV_AT_EPOCH   = 59749
BSTAR          = .48081E-2
MEAN_MOTION_DOT = .3136E-4
MEAN_MOTION_DDOT = 0

CCSDS_OMM_VERS = 2.0
CREATION_DATE  = 
ORIGINATOR     = 

OBJECT_NAME    = UNKNOWN
OBJECT_ID      = 
CENTER_NAME    = EARTH
REF_FRAME      = TEME
TIME_SYSTEM    = UTC
MEAN_ELEMENT_THEORY = SGP/SGP4

EPOCH          = 2026-01-25T01:19:17.561568
MEAN_MOTION    = 14.04608677
ECCENTRICITY   = .0083011
INCLINATION    = 98.7531
RA_OF_ASC_NODE = 63.7773
ARG_OF_PERICENTER = 128.8755
MEAN_ANOMALY   = 231.9856

EPHEMERIS_TYPE = 0
CLASSIFICATION_TYPE = U
NORAD_CAT_ID   = 87029
ELEMENT_SET_NO = 999
REV_AT_EPOCH   = 59908
BSTAR          = .97435E-3
MEAN_MOTION_DOT = .1565E-4
MEAN_MOTION_DDOT = 0

CCSDS_OMM_VERS = 2.0
CREATION_DATE  = 
ORIGINATOR     = 

OBJECT_NAME    = UNKNOWN
OBJECT_ID      = 
CENTER_NAME    = EARTH
REF_FRAME      = TEME
TIME_SYSTEM    = UTC
MEAN_ELEMENT_THEORY = SGP/SGP4

EPOCH          = 2026-01-31T02:18:57.580128
MEAN_MOTION    = 14.07211915
ECCENTRICITY   = .0042077
INCLINATION    = 98.7091
RA_OF_ASC_NODE = 77.5230
ARG_OF_PERICENTER = 316.1519
MEAN_ANOMALY   = 43.6313

EPHEMERIS_TYPE = 0
CLASSIFICATION_TYPE = U
NORAD_CAT_ID   = 87042
ELEMENT_SET_NO = 999
REV_AT_EPOCH   = 56090
BSTAR          = .53601E-3
MEAN_MOTION_DOT = .863E-5
MEAN_MOTION_DDOT = 0

CCSDS_OMM_VERS = 2.0
CREATION_DATE  = 
ORIGINATOR     = 

OBJECT_NAME    = UNKNOWN
OBJECT_ID      = 
CENTER_NAME    = EARTH
REF_FRAME      = TEME
TIME_SYSTEM    = UTC
MEAN_ELEMENT_THEORY = SGP/SGP4

EPOCH          = 2026-01-31T00:22:53.691744
MEAN_MOTION    = 13.46142016
ECCENTRICITY   = .07105
INCLINATION    = 65.7291
RA_OF_ASC_NODE = 136.8464
ARG_OF_PERICENTER = 118.8310
MEAN_ANOMALY   = 248.5954

EPHEMERIS_TYPE = 0
CLASSIFICATION_TYPE = U
NORAD_CAT_ID   = 87051
ELEMENT_SET_NO = 999
REV_AT_EPOCH   = 59521
BSTAR          = .71776E-3
MEAN_MOTION_DOT = .2002E-4
MEAN_MOTION_DDOT = 0

CCSDS_OMM_VERS = 2.0
CREATION_DATE  = 
ORIGINATOR     = 

OBJECT_NAME    = UNKNOWN
OBJECT_ID      = 
CENTER_NAME    = EARTH
REF_FRAME      = TEME
TIME_SYSTEM    = UTC
MEAN_ELEMENT_THEORY = SGP/SGP4

EPOCH          = 2026-01-30T15:34:58.922112
MEAN_MOTION    = 14.11311440
ECCENTRICITY   = .0012083
INCLINATION    = 100.0924
RA_OF_ASC_NODE = 281.0780
ARG_OF_PERICENTER = 211.0933
MEAN_ANOMALY   = 148.9520

EPHEMERIS_TYPE = 0
CLASSIFICATION_TYPE = U
NORAD_CAT_ID   = 87054
ELEMENT_SET_NO = 999
REV_AT_EPOCH   = 62322
BSTAR          = .11571E-2
MEAN_MOTION_DOT = .2039E-4
MEAN_MOTION_DDOT = 0

CCSDS_OMM_VERS = 2.0
CREATION_DATE  = 
ORIGINATOR     = 

OBJECT_NAME    = UNKNOWN
OBJECT_ID      = 
CENTER_NAME    = EARTH
REF_FRAME      = TEME
TIME_SYSTEM    = UTC
MEAN_ELEMENT_THEORY = SGP/SGP4

EPOCH          = 2026-01-30T06:57:42.394464
MEAN_MOTION    = 13.86164797
ECCENTRICITY   = .0473404
INCLINATION    = 61.2224
RA_OF_ASC_NODE = 127.4912
ARG_OF_PERICENTER = 261.8611
MEAN_ANOMALY   = 92.8475

EPHEMERIS_TYPE = 0
CLASSIFICATION_TYPE = U
NORAD_CAT_ID   = 87071
ELEMENT_SET_NO = 999
REV_AT_EPOCH   = 60921
BSTAR          = .32844E-2
MEAN_MOTION_DOT = .9126E-4
MEAN_MOTION_DDOT = 0

CCSDS_OMM_VERS = 2.0
CREATION_DATE  = 
ORIGINATOR     = 

OBJECT_NAME    = UNKNOWN
OBJECT_ID      = 
CENTER_NAME    = EARTH
REF_FRAME      = TEME
TIME_SYSTEM    = UTC
MEAN_ELEMENT_THEORY = SGP/SGP4

EPOCH          = 2026-01-27T17:30:28.256544
MEAN_MOTION    = 12.42837985
ECCENTRICITY   = .0027269
INCLINATION    = 102.2598
RA_OF_ASC_NODE = 124.2455
ARG_OF_PERICENTER = 356.6348
MEAN_ANOMALY   = 3.4529

EPHEMERIS_TYPE = 0
CLASSIFICATION_TYPE = U
NORAD_CAT_ID   = 87129
ELEMENT_SET_NO = 999
REV_AT_EPOCH   = 55238
BSTAR          = .21176E-2
MEAN_MOTION_DOT = .247E-5
MEAN_MOTION_DDOT = 0

CCSDS_OMM_VERS = 2.0
CREATION_DATE  = 
ORIGINATOR     = 

OBJECT_NAME    = UNKNOWN
OBJECT_ID      = 
CENTER_NAME    = EARTH
REF_FRAME      = TEME
TIME_SYSTEM    = UTC
MEAN_ELEMENT_THEORY = SGP/SGP4

EPOCH          = 2026-01-31T01:33:14.383584
MEAN_MOTION    = 13.66210002
ECCENTRICITY   = .0106898
INCLINATION    = 90.3469
RA_OF_ASC_NODE = 71.1845
ARG_OF_PERICENTER = 111.3217
MEAN_ANOMALY   = 249.9394

EPHEMERIS_TYPE = 0
CLASSIFICATION_TYPE = U
NORAD_CAT_ID   = 87159
ELEMENT_SET_NO = 999
REV_AT_EPOCH   = 56342
BSTAR          = .18041E-2
MEAN_MOTION_DOT = .1557E-4
MEAN_MOTION_DDOT = 0

CCSDS_OMM_VERS = 2.0
CREATION_DATE  = 
ORIGINATOR     = 

OBJECT_NAME    = UNKNOWN
OBJECT_ID      = 
CENTER_NAME    = EARTH
REF_FRAME      = TEME
TIME_SYSTEM    = UTC
MEAN_ELEMENT_THEORY = SGP/SGP4

EPOCH          = 2026-01-31T04:48:50.286528
MEAN_MOTION    = 13.64178465
ECCENTRICITY   = .064424
INCLINATION    = 65.6004
RA_OF_ASC_NODE = 114.2868
ARG_OF_PERICENTER = 42.4470
MEAN_ANOMALY   = 322.4594

EPHEMERIS_TYPE = 0
CLASSIFICATION_TYPE = U
NORAD_CAT_ID   = 87163
ELEMENT_SET_NO = 999
REV_AT_EPOCH   = 58426
BSTAR          = .5226E-3
MEAN_MOTION_DOT = .1677E-4
MEAN_MOTION_DDOT = 0

CCSDS_OMM_VERS = 2.0
CREATION_DATE  = 
ORIGINATOR     = 

OBJECT_NAME    = UNKNOWN
OBJECT_ID      = 
CENTER_NAME    = EARTH
REF_FRAME      = TEME
TIME_SYSTEM    = UTC
MEAN_ELEMENT_THEORY = SGP/SGP4

EPOCH          = 2026-01-30T17:11:25.174176
MEAN_MOTION    = 14.58945358
ECCENTRICITY   = .0102366
INCLINATION    = 65.2020
RA_OF_ASC_NODE = 185.4064
ARG_OF_PERICENTER = 31.7917
MEAN_ANOMALY   = 328.9307

EPHEMERIS_TYPE = 0
CLASSIFICATION_TYPE = U
NORAD_CAT_ID   = 87164
ELEMENT_SET_NO = 999
REV_AT_EPOCH   = 64291
BSTAR          = .83363E-3
MEAN_MOTION_DOT = .4094E-4
MEAN_MOTION_DDOT = 0

