UNKNOWN                 
1 85373U          26030.59379950  .00002437  00000+0  16671-2 0  9992
2 85373 100.4278  78.4430 0051179 111.0304  43.1777 14.00253192618965
UNKNOWN                 
1 85430U          26026.68381291  .01102801  65252-3  17938-2 0  9990
2 85430  53.2147 236.7622 0003262 171.8494 188.2593 16.02882600    19
UNKNOWN                 
1 87014U          26030.41787798  .00003136  00000+0  48081-2 0  9997
2 87014 100.4858   2.4091 0045390 117.1204  34.2059 13.52134107597495
UNKNOWN                 
1 87029U          26025.05506437  .00001565  00000+0  97435-3 0  9998
2 87029  98.7531  63.7773 0083011 128.8755 231.9856 14.04608677599081
UNKNOWN                 
1 87042U          26031.09649977  .00000863  00000+0  53601-3 0  9998
2 87042  98.7091  77.5230 0042077 316.1519  43.6313 14.07211915560908
UNKNOWN                 
1 87051U          26031.01589921  .00002002  00000+0  71776-3 0  9992
2 87051  65.7291 136.8464 0710500 118.8310 248.5954 13.46142016595217
UNKNOWN                 
1 87054U          26030.64929308  .00002039  00000+0  11571-2 0  9996
2 87054 100.0924 281.0780 0012083 211.0933 148.9520 14.11311440623225
UNKNOWN                 
1 87071U          26030.29007401  .00009126  00000+0  32844-2 0  9997
2 87071  61.2224 127.4912 0473404 261.8611  92.8475 13.86164797609210
UNKNOWN                 
1 87129U          26027.72949371  .00000247  00000+0  21176-2 0  9997
2 87129 102.2598 124.2455 0027269 356.6348   3.4529 12.42837985552385
UNKNOWN                 
1 87159U          26031.06474981  .00001557  00000+0  18041-2 0  9994
2 87159  90.3469  71.1845 0106898 111.3217 249.9394 13.66210002563428
UNKNOWN                 
1 87163U          26031.20058202  .00001677  00000+0  52260-3 0  9994
2 87163  65.6004 114.2868 0644240  42.4470 322.4594 13.64178465584268
UNKNOWN                 
1 87164U          26030.71626359  .00004094  00000+0  83363-3 0  9998
2 87164  65.2020 185.4064 0102366  31.7917 328.9307 14.58945358642913
